[{"OBJECT_NAME":"STARLINK-3547","OBJECT_ID":"2022-022AP","EPOCH":"2026-03-09T22:42:59.868864","MEAN_MOTION":15.08839838,"ECCENTRICITY":0.00013817,"INCLINATION":53.2184,"RA_OF_ASC_NODE":357.9683,"ARG_OF_PERICENTER":96.0513,"MEAN_ANOMALY":264.0637,"EPHEMERIS_TYPE":0,"CLASSIFICATION_TYPE":"U","NORAD_CAT_ID":51889,"ELEMENT_SET_NO":999,"REV_AT_EPOCH":22328,"BSTAR":-1.74758e-6,"MEAN_MOTION_DOT":-3.16e-6,"MEAN_MOTION_DDOT":0},{"OBJECT_NAME":"CZ-6A DEB","OBJECT_ID":"2024-126C","EPOCH":"2026-03-09T22:45:09.534528","MEAN_MOTION":15.08339588,"ECCENTRICITY":0.00034995,"INCLINATION":97.8272,"RA_OF_ASC_NODE":88.0703,"ARG_OF_PERICENTER":249.9832,"MEAN_ANOMALY":110.1019,"EPHEMERIS_TYPE":0,"CLASSIFICATION_TYPE":"U","NORAD_CAT_ID":60213,"ELEMENT_SET_NO":999,"REV_AT_EPOCH":9177,"BSTAR":0.0010886629,"MEAN_MOTION_DOT":0.00016868,"MEAN_MOTION_DDOT":0}]
